{
  "type": "FeatureCollection",
  "features": [
    {
      "type": "Feature",
      "properties": {
        "norad_id": 44709,
        "name": "BEIDOU-3 IGSO-3 (C40)",
        "group": "gnss",
        "lat": 41.1939931257279,
        "lon": 65.43726997111085,
        "alt_km": 35708.418541568775,
        "timestamp": "2025-12-05T14:45:15.544606+00:00",
        "meta_object_name": "BEIDOU-3 IGSO-3 (C40)",
        "meta_object_id": "2019-073A",
        "meta_epoch": "2025-11-20T07:11:22.740000",
        "meta_mean_motion": 1.00250097,
        "meta_eccentricity": 0.0044538,
        "meta_inclination": 55.163,
        "meta_ra_of_asc_node": 283.159,
        "meta_arg_of_pericenter": 191.5856,
        "meta_mean_anomaly": 168.2409,
        "meta_ephemeris_type": 0,
        "meta_classification_type": "U",
        "meta_norad_cat_id": 44709,
        "meta_element_set_no": 999,
        "meta_rev_at_epoch": 2236,
        "meta_bstar": 0,
        "meta_mean_motion_dot": -2.06e-06,
        "meta_mean_motion_ddot": 0,
        "tle_line1": "1 44709U 19073A   25324.29956875 -.00000206  00000+0  00000+0 0  9998",
        "tle_line2": "2 44709  55.1630 283.1590 0044538 191.5856 168.2409  1.00250097 22360"
      },
      "geometry": {
        "type": "Point",
        "coordinates": [
          65.43726997111085,
          41.1939931257279
        ]
      }
    },
    {
      "type": "Feature",
      "properties": {
        "norad_id": 44793,
        "name": "BEIDOU-3 M22 (C44)",
        "group": "gnss",
        "lat": -49.6065962081908,
        "lon": -175.13954266750983,
        "alt_km": 21544.077877411808,
        "timestamp": "2025-12-05T14:45:15.544621+00:00",
        "meta_object_name": "BEIDOU-3 M22 (C44)",
        "meta_object_id": "2019-078A",
        "meta_epoch": "2025-12-02T00:28:58.554624",
        "meta_mean_motion": 1.86231817,
        "meta_eccentricity": 0.00056333,
        "meta_inclination": 54.1183,
        "meta_ra_of_asc_node": 306.7625,
        "meta_arg_of_pericenter": 22.616,
        "meta_mean_anomaly": 337.398,
        "meta_ephemeris_type": 0,
        "meta_classification_type": "U",
        "meta_norad_cat_id": 44793,
        "meta_element_set_no": 999,
        "meta_rev_at_epoch": 4097,
        "meta_bstar": 0,
        "meta_mean_motion_dot": -6.1e-07,
        "meta_mean_motion_ddot": 0,
        "tle_line1": "1 44793U 19078A   25336.02012216 -.00000061  00000+0  00000+0 0  9991",
        "tle_line2": "2 44793  54.1183 306.7625 0005633  22.6160 337.3980  1.86231817 40974"
      },
      "geometry": {
        "type": "Point",
        "coordinates": [
          -175.13954266750983,
          -49.6065962081908
        ]
      }
    },
    {
      "type": "Feature",
      "properties": {
        "norad_id": 44794,
        "name": "BEIDOU-3 M21 (C43)",
        "group": "gnss",
        "lat": 17.71049274614853,
        "lon": 113.20566335310835,
        "alt_km": 21535.566450861006,
        "timestamp": "2025-12-05T14:45:15.544632+00:00",
        "meta_object_name": "BEIDOU-3 M21 (C43)",
        "meta_object_id": "2019-078B",
        "meta_epoch": "2025-12-04T07:19:45.423840",
        "meta_mean_motion": 1.86227545,
        "meta_eccentricity": 0.0003958,
        "meta_inclination": 54.0893,
        "meta_ra_of_asc_node": 306.6475,
        "meta_arg_of_pericenter": 10.7683,
        "meta_mean_anomaly": 349.2229,
        "meta_ephemeris_type": 0,
        "meta_classification_type": "U",
        "meta_norad_cat_id": 44794,
        "meta_element_set_no": 999,
        "meta_rev_at_epoch": 4102,
        "meta_bstar": 0,
        "meta_mean_motion_dot": -6.8e-07,
        "meta_mean_motion_ddot": 0,
        "tle_line1": "1 44794U 19078B   25338.30538685 -.00000068  00000+0  00000+0 0  9995",
        "tle_line2": "2 44794  54.0893 306.6475 0003958  10.7683 349.2229  1.86227545 41028"
      },
      "geometry": {
        "type": "Point",
        "coordinates": [
          113.20566335310835,
          17.71049274614853
        ]
      }
    },
    {
      "type": "Feature",
      "properties": {
        "norad_id": 44850,
        "name": "COSMOS 2544 (759)",
        "group": "gnss",
        "lat": -52.342918244805816,
        "lon": 43.96301158081965,
        "alt_km": 19113.657215007363,
        "timestamp": "2025-12-05T14:45:15.544645+00:00",
        "meta_object_name": "COSMOS 2544 (759)",
        "meta_object_id": "2019-088A",
        "meta_epoch": "2025-12-03T19:35:48.045120",
        "meta_mean_motion": 2.13101769,
        "meta_eccentricity": 0.00137151,
        "meta_inclination": 65.4552,
        "meta_ra_of_asc_node": 80.257,
        "meta_arg_of_pericenter": 248.9953,
        "meta_mean_anomaly": 110.8552,
        "meta_ephemeris_type": 0,
        "meta_classification_type": "U",
        "meta_norad_cat_id": 44850,
        "meta_element_set_no": 999,
        "meta_rev_at_epoch": 4655,
        "meta_bstar": 0,
        "meta_mean_motion_dot": -2.3e-07,
        "meta_mean_motion_ddot": 0,
        "tle_line1": "1 44850U 19088A   25337.81652830 -.00000023  00000+0  00000+0 0  9994",
        "tle_line2": "2 44850  65.4552  80.2570 0013715 248.9953 110.8552  2.13101769 46551"
      },
      "geometry": {
        "type": "Point",
        "coordinates": [
          43.96301158081965,
          -52.342918244805816
        ]
      }
    },
    {
      "type": "Feature",
      "properties": {
        "norad_id": 44864,
        "name": "BEIDOU-3 M19 (C41)",
        "group": "gnss",
        "lat": -5.231044199792687,
        "lon": 65.71893421175483,
        "alt_km": 21511.269290924916,
        "timestamp": "2025-12-05T14:45:15.544657+00:00",
        "meta_object_name": "BEIDOU-3 M19 (C41)",
        "meta_object_id": "2019-090A",
        "meta_epoch": "2025-12-02T22:27:31.551840",
        "meta_mean_motion": 1.86231053,
        "meta_eccentricity": 0.00175607,
        "meta_inclination": 56.3847,
        "meta_ra_of_asc_node": 69.2872,
        "meta_arg_of_pericenter": 284.9296,
        "meta_mean_anomaly": 72.494,
        "meta_ephemeris_type": 0,
        "meta_classification_type": "U",
        "meta_norad_cat_id": 44864,
        "meta_element_set_no": 999,
        "meta_rev_at_epoch": 4057,
        "meta_bstar": 0,
        "meta_mean_motion_dot": -4.9e-07,
        "meta_mean_motion_ddot": 0,
        "tle_line1": "1 44864U 19090A   25336.93578185 -.00000049  00000+0  00000+0 0  9992",
        "tle_line2": "2 44864  56.3847  69.2872 0017560 284.9296  72.4940  1.86231053 40575"
      },
      "geometry": {
        "type": "Point",
        "coordinates": [
          65.71893421175483,
          -5.231044199792687
        ]
      }
    },
    {
      "type": "Feature",
      "properties": {
        "norad_id": 44865,
        "name": "BEIDOU-3 M20 (C42)",
        "group": "gnss",
        "lat": 55.822117923188344,
        "lon": 147.18287753109448,
        "alt_km": 21555.33522476846,
        "timestamp": "2025-12-05T14:45:15.544668+00:00",
        "meta_object_name": "BEIDOU-3 M20 (C42)",
        "meta_object_id": "2019-090B",
        "meta_epoch": "2025-12-02T19:15:49.919904",
        "meta_mean_motion": 1.86231044,
        "meta_eccentricity": 0.00146831,
        "meta_inclination": 56.3861,
        "meta_ra_of_asc_node": 69.3259,
        "meta_arg_of_pericenter": 297.6742,
        "meta_mean_anomaly": 60.1134,
        "meta_ephemeris_type": 0,
        "meta_classification_type": "U",
        "meta_norad_cat_id": 44865,
        "meta_element_set_no": 999,
        "meta_rev_at_epoch": 4055,
        "meta_bstar": 0,
        "meta_mean_motion_dot": -4.8e-07,
        "meta_mean_motion_ddot": 0,
        "tle_line1": "1 44865U 19090B   25336.80266111 -.00000048  00000+0  00000+0 0  9991",
        "tle_line2": "2 44865  56.3861  69.3259 0014683 297.6742  60.1134  1.86231044 40559"
      },
      "geometry": {
        "type": "Point",
        "coordinates": [
          147.18287753109448,
          55.822117923188344
        ]
      }
    },
    {
      "type": "Feature",
      "properties": {
        "norad_id": 45344,
        "name": "BEIDOU-3 G2 (C60)",
        "group": "gnss",
        "lat": -1.36289837284322,
        "lon": 16.098114203864167,
        "alt_km": 35779.54324513596,
        "timestamp": "2025-12-05T14:45:15.544682+00:00",
        "meta_object_name": "BEIDOU-3 G2 (C60)",
        "meta_object_id": "2020-017A",
        "meta_epoch": "2025-12-04T17:31:57.734976",
        "meta_mean_motion": 1.00270168,
        "meta_eccentricity": 0.000472,
        "meta_inclination": 2.9855,
        "meta_ra_of_asc_node": 43.5945,
        "meta_arg_of_pericenter": 263.9668,
        "meta_mean_anomaly": 109.2773,
        "meta_ephemeris_type": 0,
        "meta_classification_type": "U",
        "meta_norad_cat_id": 45344,
        "meta_element_set_no": 999,
        "meta_rev_at_epoch": 2131,
        "meta_bstar": 0,
        "meta_mean_motion_dot": -1.29e-06,
        "meta_mean_motion_ddot": 0,
        "tle_line1": "1 45344U 20017A   25338.73052934 -.00000129  00000+0  00000+0 0  9995",
        "tle_line2": "2 45344   2.9855  43.5945 0004720 263.9668 109.2773  1.00270168 21315"
      },
      "geometry": {
        "type": "Point",
        "coordinates": [
          16.098114203864167,
          -1.36289837284322
        ]
      }
    }
  ]
}